[{"OBJECT_NAME":"STARLINK-31480","OBJECT_ID":"2024-056L","EPOCH":"2026-03-09T11:30:31.424832","MEAN_MOTION":15.27570263,"ECCENTRICITY":0.00022487,"INCLINATION":43.003,"RA_OF_ASC_NODE":231.7654,"ARG_OF_PERICENTER":267.0952,"MEAN_ANOMALY":92.9642,"EPHEMERIS_TYPE":0,"CLASSIFICATION_TYPE":"U","NORAD_CAT_ID":59306,"ELEMENT_SET_NO":999,"REV_AT_EPOCH":11112,"BSTAR":-1.7053959e-5,"MEAN_MOTION_DOT":-7.32e-6,"MEAN_MOTION_DDOT":0},{"OBJECT_NAME":"GESAT GEN1","OBJECT_ID":"2025-009D","EPOCH":"2026-03-09T17:26:20.087232","MEAN_MOTION":15.26847505,"ECCENTRICITY":8.879e-5,"INCLINATION":97.4058,"RA_OF_ASC_NODE":151.4598,"ARG_OF_PERICENTER":98.3547,"MEAN_ANOMALY":261.7793,"EPHEMERIS_TYPE":0,"CLASSIFICATION_TYPE":"U","NORAD_CAT_ID":62612,"ELEMENT_SET_NO":999,"REV_AT_EPOCH":6373,"BSTAR":0.00038326131,"MEAN_MOTION_DOT":0.00010041,"MEAN_MOTION_DDOT":0}]
